#aV2013  4 28  0  0  0.00000000     288 DD+AD WGS84 FIT  NGA
## 1738      0.00000000   300.00000000 56410 0.0000000000000
+   30     1  2  3  4  5  6  7  8  9 10 11 12 13 14 15 16 17
+         18 19 20 21 22 23 24 25 26 28 29 31 32  0  0  0  0
+          0  0  0  0  0  0  0  0  0  0  0  0  0  0  0  0  0
+          0  0  0  0  0  0  0  0  0  0  0  0  0  0  0  0  0
+          0  0  0  0  0  0  0  0  0  0  0  0  0  0  0  0  0
++         2  2  2  2  2  2  2  2  2  2  2  2  2  2  2  2  2
++         2  2  2  2  2  2  2  2  2  2  2  2  2  2  2  0  0
++         0  0  0  0  0  0  0  0  0  0  0  0  0  0  0  0  0
++         0  0  0  0  0  0  0  0  0  0  0  0  0  0  0  0  0
++         0  0  0  0  0  0  0  0  0  0  0  0  0  0  0  0  0
%c cc cc ccc ccc cccc cccc cccc cccc ccccc ccccc ccccc ccccc
%c cc cc ccc ccc cccc cccc cccc cccc ccccc ccccc ccccc ccccc
%f  0.0000000  0.000000000  0.00000000000  0.000000000000000
%f  0.0000000  0.000000000  0.00000000000  0.000000000000000
%i    0    0    0    0      0      0      0      0         0
%i    0    0    0    0      0      0      0      0         0
/*      NGA, ST. LOUIS,MO.                                  
/*   EPHEMERIS COMPUTED FROM  1 DAYS OF DATA
/*   EPOCHA SMOOTHER  
/* CCCCCCCCCCCCCCCCCCCCCCCCCCCCCCCCCCCCCCCCCCCCCCCCCCCCCCCCC
*  2013  4 28 12 10  0.00000000                                                 
P  1 -13755.585124  22664.224784   -427.522443     20.554372                    
V  1  -2755.975305  -1097.285344  31784.730889      0.037986                    
P  2  18451.890515  -5381.560562 -17905.805100    429.513709                    
V  2 -10023.278556  21276.293671 -17044.438867      0.018629                    
P  3 -17379.069047    849.264034  19615.397414    199.882435                    
V  3 -14370.596334 -21791.039934 -11273.945387      0.049675                    
P  4  14382.235180   6824.182861 -21555.189309    203.142704                    
V  4 -13980.825376  22851.761143  -1841.436990      0.106173                    
P  5  26104.531882  -2531.316541   4620.017019   -393.054270                    
V  5   5795.257181   3170.539021 -30681.422224     -0.011669                    
P  6 -18986.783522  -5902.216058  17867.391429    254.984102                    
V  6 -10374.722152 -19973.446652 -17346.796400     -0.159675                    
P  7  -2685.598026  22039.649163  14392.563845    207.758811                    
V  7 -11612.650275  14272.358390 -24375.026042      0.042626                    
P  8   4988.631085  15498.640525  20941.991794      5.852566                    
V  8 -16981.955179  20251.085172 -11569.414638      0.001930                    
P  9  16226.164316   -371.162058  20477.518927    237.172913                    
V  9 -13616.122510  23573.256765  10861.382701      0.026395                    
P 10  22442.030308   9392.386532 -11427.354711    -78.036778                    
V 10 -14063.439724   1765.389377 -26442.464653     -0.011638                    
P 11 -12883.683976  21255.726082   8542.002106   -376.693155                    
V 11  -1730.410719 -12534.139838  27473.536324     -0.036904                    
P 12  15222.187695 -11359.209185 -18505.678398    130.843231                    
V 12  23327.188200   2728.316125  17747.131051      0.020786                    
P 13   2660.893592  24355.386529 -10243.414230    124.342919                    
V 13  -6708.636393 -11085.454137 -28618.576635     -0.036187                    
P 14 -14836.105346 -20758.339558  -7450.534376    221.044146                    
V 14  -1975.823549  -9713.851427  30062.567552     -0.000907                    
P 15   9979.001579 -13057.507553  20792.766938   -117.006165                    
V 15  14043.505840  22599.989088   7695.884361     -0.014818                    
P 16 -26417.205168    579.331887   4122.267610   -252.379424                    
V 16  -5034.586367  -2154.266664 -31492.285481      0.001505                    
P 17  15554.809092  20297.224403  -7392.560768     25.080049                    
V 17   2055.454097   9692.599245  29819.700602     -0.040073                    
P 18  -9083.683885 -15394.374532  20142.703288    251.021934                    
V 18  24756.390527   -289.377859  10812.460140      0.017716                    
P 19 -12737.419223   8498.584710  21583.868277   -368.554612                    
V 19 -11234.022123 -25264.772136   3719.718816     -0.031369                    
P 20 -11214.411206  14639.774798 -19265.869799     95.245095                    
V 20 -24263.897094  -1157.890508  13436.348910      0.019109                    
P 21  -2240.379228 -20449.365218  17073.244927   -294.480484                    
V 21  13124.281314 -16474.008352 -19166.303985     -0.021626                    
P 22 -19820.953132 -11224.751518  13967.624553    165.954546                    
V 22  17544.905444  -2186.323002  23321.180726      0.013714                    
P 23  -3514.436457  19653.738243 -17253.758756     90.910269                    
V 23 -12046.987500 -18760.036470 -19231.728495     -0.036256                    
P 24  15580.410718 -21244.709951   3183.253331     -5.323449                    
V 24    350.012140   4972.245461  31395.759355     -0.007154                    
P 25   3046.988294 -14818.767080 -21868.100649     91.949332                    
V 25  27612.582407    992.465516   3278.149220      0.039390                    
P 26  15851.179489   1872.581921  20655.022073     -9.143620                    
V 26  10149.930283  25668.712815  -9492.732386      0.151561                    
P 28  16171.856701  12980.726604  17279.249288    253.858138                    
V 28 -20717.590841   -759.640564  20490.861495      0.033690                    
P 29  -3481.421987 -24171.496205 -10445.629396    430.490015                    
V 29   7816.057567  11036.345045 -27949.533423      0.036383                    
P 31 -14356.515210  -4643.665968 -21712.995007    312.365311                    
V 31  15110.682059 -23446.065579  -4666.123986      0.013982                    
P 32 -19435.181557   8755.815091 -15372.281908   -553.073117                    
V 32 -19557.758208  -4936.505204  22236.938532     -0.022382                    
EOF
